CCSDS_OMM_VERS = 2.0
CREATION_DATE  = 
ORIGINATOR     = 

OBJECT_NAME    = ISS OBJECT XW
OBJECT_ID      = 1998-067XW
CENTER_NAME    = EARTH
REF_FRAME      = TEME
TIME_SYSTEM    = UTC
MEAN_ELEMENT_THEORY = SGP/SGP4

EPOCH          = 2026-03-02T02:49:59.251296
MEAN_MOTION    = 15.66308099
ECCENTRICITY   = .0004772
INCLINATION    = 51.6247
RA_OF_ASC_NODE = 104.0841
ARG_OF_PERICENTER = 45.3027
MEAN_ANOMALY   = 314.8357

EPHEMERIS_TYPE = 0
CLASSIFICATION_TYPE = U
NORAD_CAT_ID   = 66910
ELEMENT_SET_NO = 999
REV_AT_EPOCH   = 1399
BSTAR          = .11411E-2
MEAN_MOTION_DOT = .121767E-2
MEAN_MOTION_DDOT = 0

CCSDS_OMM_VERS = 2.0
CREATION_DATE  = 
ORIGINATOR     = 

OBJECT_NAME    = ISS OBJECT XX
OBJECT_ID      = 1998-067XX
CENTER_NAME    = EARTH
REF_FRAME      = TEME
TIME_SYSTEM    = UTC
MEAN_ELEMENT_THEORY = SGP/SGP4

EPOCH          = 2026-03-01T19:55:36.625728
MEAN_MOTION    = 15.71384697
ECCENTRICITY   = .00069656
INCLINATION    = 51.6226
RA_OF_ASC_NODE = 104.4016
ARG_OF_PERICENTER = 37.9423
MEAN_ANOMALY   = 322.2065

EPHEMERIS_TYPE = 0
CLASSIFICATION_TYPE = U
NORAD_CAT_ID   = 66911
ELEMENT_SET_NO = 999
REV_AT_EPOCH   = 1395
BSTAR          = .15932821E-2
MEAN_MOTION_DOT = .212327E-2
MEAN_MOTION_DDOT = 0

CCSDS_OMM_VERS = 2.0
CREATION_DATE  = 
ORIGINATOR     = 

OBJECT_NAME    = ISS OBJECT XY
OBJECT_ID      = 1998-067XY
CENTER_NAME    = EARTH
REF_FRAME      = TEME
TIME_SYSTEM    = UTC
MEAN_ELEMENT_THEORY = SGP/SGP4

EPOCH          = 2026-03-02T03:56:44.688768
MEAN_MOTION    = 15.62151430
ECCENTRICITY   = .0002821
INCLINATION    = 51.6268
RA_OF_ASC_NODE = 105.1576
ARG_OF_PERICENTER = 47.7096
MEAN_ANOMALY   = 312.4137

EPHEMERIS_TYPE = 0
CLASSIFICATION_TYPE = U
NORAD_CAT_ID   = 66912
ELEMENT_SET_NO = 999
REV_AT_EPOCH   = 1397
BSTAR          = .94832E-3
MEAN_MOTION_DOT = .85307E-3
MEAN_MOTION_DDOT = 0

CCSDS_OMM_VERS = 2.0
CREATION_DATE  = 
ORIGINATOR     = 

OBJECT_NAME    = ISS OBJECT XZ
OBJECT_ID      = 1998-067XZ
CENTER_NAME    = EARTH
REF_FRAME      = TEME
TIME_SYSTEM    = UTC
MEAN_ELEMENT_THEORY = SGP/SGP4

EPOCH          = 2026-03-01T17:46:16.892256
MEAN_MOTION    = 15.51106476
ECCENTRICITY   = .00096037
INCLINATION    = 51.6323
RA_OF_ASC_NODE = 111.3281
ARG_OF_PERICENTER = 159.6177
MEAN_ANOMALY   = 200.5198

EPHEMERIS_TYPE = 0
CLASSIFICATION_TYPE = U
NORAD_CAT_ID   = 67683
ELEMENT_SET_NO = 999
REV_AT_EPOCH   = 355
BSTAR          = .70810569E-3
MEAN_MOTION_DOT = .41861E-3
MEAN_MOTION_DDOT = 0

CCSDS_OMM_VERS = 2.0
CREATION_DATE  = 
ORIGINATOR     = 

OBJECT_NAME    = GXIBA-1
OBJECT_ID      = 1998-067YA
CENTER_NAME    = EARTH
REF_FRAME      = TEME
TIME_SYSTEM    = UTC
MEAN_ELEMENT_THEORY = SGP/SGP4

EPOCH          = 2026-03-01T12:44:48.522624
MEAN_MOTION    = 15.52893604
ECCENTRICITY   = .00110451
INCLINATION    = 51.6306
RA_OF_ASC_NODE = 112.1796
ARG_OF_PERICENTER = 149.3528
MEAN_ANOMALY   = 210.8109

EPHEMERIS_TYPE = 0
CLASSIFICATION_TYPE = U
NORAD_CAT_ID   = 67684
ELEMENT_SET_NO = 999
REV_AT_EPOCH   = 352
BSTAR          = .11804746E-2
MEAN_MOTION_DOT = .75127E-3
MEAN_MOTION_DDOT = 0

CCSDS_OMM_VERS = 2.0
CREATION_DATE  = 
ORIGINATOR     = 

OBJECT_NAME    = CORAL
OBJECT_ID      = 1998-067YB
CENTER_NAME    = EARTH
REF_FRAME      = TEME
TIME_SYSTEM    = UTC
MEAN_ELEMENT_THEORY = SGP/SGP4

EPOCH          = 2026-03-01T20:47:45.618144
MEAN_MOTION    = 15.51398872
ECCENTRICITY   = .0011564
INCLINATION    = 51.6314
RA_OF_ASC_NODE = 110.6689
ARG_OF_PERICENTER = 156.0443
MEAN_ANOMALY   = 204.1086

EPHEMERIS_TYPE = 0
CLASSIFICATION_TYPE = U
NORAD_CAT_ID   = 67685
ELEMENT_SET_NO = 999
REV_AT_EPOCH   = 357
BSTAR          = .74665E-3
MEAN_MOTION_DOT = .44685E-3
MEAN_MOTION_DDOT = 0

CCSDS_OMM_VERS = 2.0
CREATION_DATE  = 
ORIGINATOR     = 

OBJECT_NAME    = ISS OBJECT YC
OBJECT_ID      = 1998-067YC
CENTER_NAME    = EARTH
REF_FRAME      = TEME
TIME_SYSTEM    = UTC
MEAN_ELEMENT_THEORY = SGP/SGP4

EPOCH          = 2026-03-01T09:53:56.870592
MEAN_MOTION    = 15.51728286
ECCENTRICITY   = .00076647
INCLINATION    = 51.6316
RA_OF_ASC_NODE = 112.8884
ARG_OF_PERICENTER = 122.7439
MEAN_ANOMALY   = 237.4290

EPHEMERIS_TYPE = 0
CLASSIFICATION_TYPE = U
NORAD_CAT_ID   = 67686
ELEMENT_SET_NO = 999
REV_AT_EPOCH   = 350
BSTAR          = .89125935E-3
MEAN_MOTION_DOT = .54052E-3
MEAN_MOTION_DDOT = 0

CCSDS_OMM_VERS = 2.0
CREATION_DATE  = 
ORIGINATOR     = 

OBJECT_NAME    = LEOPARD
OBJECT_ID      = 1998-067YD
CENTER_NAME    = EARTH
REF_FRAME      = TEME
TIME_SYSTEM    = UTC
MEAN_ELEMENT_THEORY = SGP/SGP4

EPOCH          = 2026-03-02T03:00:39.508992
MEAN_MOTION    = 15.51272164
ECCENTRICITY   = .0007655
INCLINATION    = 51.6314
RA_OF_ASC_NODE = 109.3990
ARG_OF_PERICENTER = 128.7771
MEAN_ANOMALY   = 231.3903

EPHEMERIS_TYPE = 0
CLASSIFICATION_TYPE = U
NORAD_CAT_ID   = 67687
ELEMENT_SET_NO = 999
REV_AT_EPOCH   = 353
BSTAR          = .70118E-3
MEAN_MOTION_DOT = .41666E-3
MEAN_MOTION_DDOT = 0

CCSDS_OMM_VERS = 2.0
CREATION_DATE  = 
ORIGINATOR     = 

OBJECT_NAME    = ISS OBJECT YE
OBJECT_ID      = 1998-067YE
CENTER_NAME    = EARTH
REF_FRAME      = TEME
TIME_SYSTEM    = UTC
MEAN_ELEMENT_THEORY = SGP/SGP4

EPOCH          = 2026-03-01T09:55:55.287840
MEAN_MOTION    = 15.51553933
ECCENTRICITY   = .00076095
INCLINATION    = 51.6318
RA_OF_ASC_NODE = 112.8976
ARG_OF_PERICENTER = 123.4438
MEAN_ANOMALY   = 236.7280

EPHEMERIS_TYPE = 0
CLASSIFICATION_TYPE = U
NORAD_CAT_ID   = 67688
ELEMENT_SET_NO = 999
REV_AT_EPOCH   = 342
BSTAR          = .83355093E-3
MEAN_MOTION_DOT = .50179E-3
MEAN_MOTION_DDOT = 0

CCSDS_OMM_VERS = 2.0
CREATION_DATE  = 
ORIGINATOR     = 

OBJECT_NAME    = CREW DRAGON 12
OBJECT_ID      = 2026-031A
CENTER_NAME    = EARTH
REF_FRAME      = TEME
TIME_SYSTEM    = UTC
MEAN_ELEMENT_THEORY = SGP/SGP4

EPOCH          = 2026-03-01T20:00:02.825856
MEAN_MOTION    = 15.48387794
ECCENTRICITY   = .0008284
INCLINATION    = 51.6319
RA_OF_ASC_NODE = 111.1961
ARG_OF_PERICENTER = 147.0223
MEAN_ANOMALY   = 213.1284

EPHEMERIS_TYPE = 0
CLASSIFICATION_TYPE = U
NORAD_CAT_ID   = 67796
ELEMENT_SET_NO = 999
REV_AT_EPOCH   = 55485
BSTAR          = .19089E-3
MEAN_MOTION_DOT = .9867E-4
MEAN_MOTION_DDOT = 0

