ISS OBJECT XW           
1 66910U 98067XW  26061.11804689  .00121767  00000+0  11411-2 0  9997
2 66910  51.6247 104.0841 0004772  45.3027 314.8357 15.66308099 13998
ISS OBJECT XX           
1 66911U 98067XX  26060.83028502  .00212327  00000+0  15933-2 0  9994
2 66911  51.6226 104.4016 0006965  37.9423 322.2065 15.71384697 13956
ISS OBJECT XY           
1 66912U 98067XY  26061.16440612  .00085307  00000+0  94832-3 0  9994
2 66912  51.6268 105.1576 0002821  47.7096 312.4137 15.62151430 13974
ISS OBJECT XZ           
1 67683U 98067XZ  26060.74047329  .00041861  00000+0  70811-3 0  9999
2 67683  51.6323 111.3281 0009603 159.6177 200.5198 15.51106476  3557
GXIBA-1                 
1 67684U 98067YA  26060.53111716  .00075127  00000+0  11805-2 0  9998
2 67684  51.6306 112.1796 0011045 149.3528 210.8109 15.52893604  3528
CORAL                   
1 67685U 98067YB  26060.86650021  .00044685  00000+0  74665-3 0  9991
2 67685  51.6314 110.6689 0011564 156.0443 204.1086 15.51398872  3570
ISS OBJECT YC           
1 67686U 98067YC  26060.41246378  .00054052  00000+0  89126-3 0  9996
2 67686  51.6316 112.8884 0007664 122.7439 237.4290 15.51728286  3500
LEOPARD                 
1 67687U 98067YD  26061.12545728  .00041666  00000+0  70118-3 0  9995
2 67687  51.6314 109.3990 0007655 128.7771 231.3903 15.51272164  3539
ISS OBJECT YE           
1 67688U 98067YE  26060.41383435  .00050179  00000+0  83355-3 0  9998
2 67688  51.6318 112.8976 0007609 123.4438 236.7280 15.51553933  3429
CREW DRAGON 12          
1 67796U 26031A   26060.83336604  .00009867  00000+0  19089-3 0  9993
2 67796  51.6319 111.1961 0008284 147.0223 213.1284 15.48387794554857
